$$SOE
2460721.500000000, A.D. 2025-Feb-15 00:00:00.0000, -2.042601134621879E+08, -4.148551741776180E+08, 5.014462450120179E+07,
2460728.500000000, A.D. 2025-Feb-22 00:00:00.0000, -1.948742245961938E+08, -4.192988858969882E+08, 5.077743477651018E+07,
2460735.500000000, A.D. 2025-Mar-01 00:00:00.0000, -1.853943379007640E+08, -4.235404196726050E+08, 5.138575280872014E+07,
2460742.500000000, A.D. 2025-Mar-08 00:00:00.0000, -1.758250426872069E+08, -4.275777748759031E+08, 5.196929037984538E+07,
2460749.500000000, A.D. 2025-Mar-15 00:00:00.0000, -1.661709728351229E+08, -4.314090596047857E+08, 5.252777270162098E+07,
2460756.500000000, A.D. 2025-Mar-22 00:00:00.0000, -1.564368059898344E+08, -4.350324913599219E+08, 5.306093882146344E+07,
2460763.500000000, A.D. 2025-Mar-29 00:00:00.0000, -1.466272613591158E+08, -4.384463998789885E+08, 5.356854170756920E+07,
2460770.500000000, A.D. 2025-Apr-05 00:00:00.0000, -1.367470957881274E+08, -4.416492289909688E+08, 5.405034823971575E+07,
2460777.500000000, A.D. 2025-Apr-12 00:00:00.0000, -1.268011000429494E+08, -4.446395373861589E+08, 5.450613929079570E+07,
2460784.500000000, A.D. 2025-Apr-19 00:00:00.0000, -1.167940954942351E+08, -4.474159991823671E+08, 5.493570984399615E+07,
2460791.500000000, A.D. 2025-Apr-26 00:00:00.0000, -1.067309309336285E+08, -4.499774044892533E+08, 5.533886910380790E+07,
2460798.500000000, A.D. 2025-May-03 00:00:00.0000, -9.661647941348261E+07, -4.523226599503797E+08, 5.571544059162457E+07,
2460805.500000000, A.D. 2025-May-10 00:00:00.0000, -8.645563508531207E+07, -4.544507892529889E+08, 5.606526222359452E+07,
2460812.500000000, A.D. 2025-May-17 00:00:00.0000, -7.625331000396495E+07, -4.563609336452772E+08, 5.638818636356407E+07,
2460819.500000000, A.D. 2025-May-24 00:00:00.0000, -6.601443072681021E+07, -4.580523525147433E+08, 5.668407983030596E+07,
2460826.500000000, A.D. 2025-May-31 00:00:00.0000, -5.574393429305429E+07, -4.595244237167240E+08, 5.695282384590812E+07,
2460833.500000000, A.D. 2025-Jun-07 00:00:00.0000, -4.544676398732809E+07, -4.607766424493733E+08, 5.719431406062205E+07,
2460840.500000000, A.D. 2025-Jun-14 00:00:00.0000, -3.512786725580207E+07, -4.618086193429165E+08, 5.740846081667510E+07,
2460847.500000000, A.D. 2025-Jun-21 00:00:00.0000, -2.479219456161184E+07, -4.626200810353640E+08, 5.759518927217656E+07,
2460854.500000000, A.D. 2025-Jun-28 00:00:00.0000, -1.444469605494309E+07, -4.632108714717200E+08, 5.775443924272645E+07,
2460861.500000000, A.D. 2025-Jul-05 00:00:00.0000, -4.090317578353101E+06, -4.635809517719715E+08, 5.788616507650025E+07,
2460868.500000000, A.D. 2025-Jul-12 00:00:00.0000, 6.266002798049076E+06, -4.637303994743118E+08, 5.799033560651864E+07,
2460875.500000000, A.D. 2025-Jul-19 00:00:00.0000, 1.661933789786947E+07, -4.636594077297751E+08, 5.806693411595483E+07,
2460882.500000000, A.D. 2025-Jul-26 00:00:00.0000, 2.696477442292666E+07, -4.633682845061659E+08, 5.811595829284984E+07,
2460889.500000000, A.D. 2025-Aug-02 00:00:00.0000, 3.729741586334617E+07, -4.628574517810738E+08, 5.813742017024677E+07,
2460896.500000000, A.D. 2025-Aug-09 00:00:00.0000, 4.761238535389188E+07, -4.621274447402658E+08, 5.813134604870842E+07,
2460903.500000000, A.D. 2025-Aug-16 00:00:00.0000, 5.790482855081244E+07, -4.611789110467782E+08, 5.809777638947700E+07,
2460910.500000000, A.D. 2025-Aug-23 00:00:00.0000, 6.816991681901892E+07, -4.600126101666859E+08, 5.803676565343130E+07,
2460917.500000000, A.D. 2025-Aug-30 00:00:00.0000, 7.840285105550022E+07, -4.586294120400454E+08, 5.794838211470178E+07,
2460924.500000000, A.D. 2025-Sep-06 00:00:00.0000, 8.859886472764783E+07, -4.570302940988612E+08, 5.783270786129299E+07,
2460931.500000000, A.D. 2025-Sep-13 00:00:00.0000, 9.875322445285113E+07, -4.552163391160846E+08, 5.768983893325332E+07,
2460938.500000000, A.D. 2025-Sep-20 00:00:00.0000, 1.088612313907370E+08, -4.531887355313561E+08, 5.751988516398439E+07,
2460945.500000000, A.D. 2025-Sep-27 00:00:00.0000, 1.189182245051289E+08, -4.509487771446761E+08, 5.732296988247782E+07,
2460952.500000000, A.D. 2025-Oct-04 00:00:00.0000, 1.289195836771110E+08, -4.484978616418776E+08, 5.709922970619641E+07,
2460959.500000000, A.D. 2025-Oct-11 00:00:00.0000, 1.388607322935138E+08, -4.458374888975528E+08, 5.684881438230181E+07,
2460966.500000000, A.D. 2025-Oct-18 00:00:00.0000, 1.487371395925958E+08, -4.429692593322847E+08, 5.657188662915236E+07,
2460973.500000000, A.D. 2025-Oct-25 00:00:00.0000, 1.585443229046299E+08, -4.398948723154737E+08, 5.626862196642156E+07,
2460980.500000000, A.D. 2025-Nov-01 00:00:00.0000, 1.682778498251484E+08, -4.366161246003224E+08, 5.593920853158677E+07,
2460987.500000000, A.D. 2025-Nov-08 00:00:00.0000, 1.779333403541109E+08, -4.331349088242821E+08, 5.558384687706977E+07,
2460994.500000000, A.D. 2025-Nov-15 00:00:00.0000, 1.875064691481127E+08, -4.294532121357133E+08, 5.520274972980370E+07,
2461001.500000000, A.D. 2025-Nov-22 00:00:00.0000, 1.969929682878269E+08, -4.255731147295642E+08, 5.479614169462760E+07,
2461008.500000000, A.D. 2025-Nov-29 00:00:00.0000, 2.063886304067132E+08, -4.214967871604821E+08, 5.436425900877769E+07,
2461015.500000000, A.D. 2025-Dec-06 00:00:00.0000, 2.156893099022483E+08, -4.172264865723680E+08, 5.390734954550412E+07,
2461022.500000000, A.D. 2025-Dec-13 00:00:00.0000, 2.248909226620808E+08, -4.127645552164091E+08, 5.342567275152434E+07,
2461029.500000000, A.D. 2025-Dec-20 00:00:00.0000, 2.339894477982024E+08, -4.081134202363114E+08, 5.291949928162758E+07,
2461036.500000000, A.D. 2025-Dec-27 00:00:00.0000, 2.429809303156454E+08, -4.032755921325567E+08, 5.238911064123493E+07,
2461043.500000000, A.D. 2026-Jan-03 00:00:00.0000, 2.518614832561873E+08, -3.982536625244765E+08, 5.183479892104776E+07,
2461050.500000000, A.D. 2026-Jan-10 00:00:00.0000, 2.606272894260191E+08, -3.930503018915998E+08, 5.125686655867037E+07,
2461057.500000000, A.D. 2026-Jan-17 00:00:00.0000, 2.692746029388238E+08, -3.876682573876471E+08, 5.065562609864339E+07,
2461064.500000000, A.D. 2026-Jan-24 00:00:00.0000, 2.777997506510565E+08, -3.821103507054651E+08, 5.003139994563496E+07,
2461071.500000000, A.D. 2026-Jan-31 00:00:00.0000, 2.861991335122156E+08, -3.763794760004846E+08, 4.938452010793146E+07,
2461078.500000000, A.D. 2026-Feb-07 00:00:00.0000, 2.944692278920705E+08, -3.704785979299609E+08, 4.871532792089005E+07,
2461085.500000000, A.D. 2026-Feb-14 00:00:00.0000, 3.026065871397484E+08, -3.644107498239898E+08, 4.802417372629653E+07,
2461092.500000000, A.D. 2026-Feb-21 00:00:00.0000, 3.106078437648449E+08, -3.581790314137496E+08, 4.731141652020884E+07,
2461099.500000000, A.D. 2026-Feb-28 00:00:00.0000, 3.184697111576591E+08, -3.517866049676155E+08, 4.657742376422623E+07,
2461106.500000000, A.D. 2026-Mar-07 00:00:00.0000, 3.261889827901290E+08, -3.452366917889628E+08, 4.582257139033470E+07,
2461113.500000000, A.D. 2026-Mar-14 00:00:00.0000, 3.337625316725394E+08, -3.385325714103128E+08, 4.504724355420786E+07,
2461120.500000000, A.D. 2026-Mar-21 00:00:00.0000, 3.411873118493891E+08, -3.316775805873117E+08, 4.425183221046597E+07,
2461127.500000000, A.D. 2026-Mar-28 00:00:00.0000, 3.484603599261535E+08, -3.246751110660926E+08, 4.343673677870850E+07,
2461134.500000000, A.D. 2026-Apr-04 00:00:00.0000, 3.555787960241675E+08, -3.175286070918807E+08, 4.260236387721521E+07,
2461141.500000000, A.D. 2026-Apr-11 00:00:00.0000, 3.625398244385029E+08, -3.102415630207520E+08, 4.174912707018687E+07,
2461148.500000000, A.D. 2026-Apr-18 00:00:00.0000, 3.693407341592880E+08, -3.028175210431234E+08, 4.087744661379382E+07,
2461155.500000000, A.D. 2026-Apr-25 00:00:00.0000, 3.759788993036245E+08, -2.952600690061719E+08, 3.998774919845875E+07,
2461162.500000000, A.D. 2026-May-02 00:00:00.0000, 3.824517794900460E+08, -2.875728383666165E+08, 3.908046768249100E+07,
2461169.500000000, A.D. 2026-May-09 00:00:00.0000, 3.887569202812246E+08, -2.797595023414714E+08, 3.815604080045019E+07,
2461176.500000000, A.D. 2026-May-16 00:00:00.0000, 3.948919540743515E+08, -2.718237741192745E+08, 3.721491282307923E+07,
2461183.500000000, A.D. 2026-May-23 00:00:00.0000, 4.008546014935017E+08, -2.637694041106203E+08, 3.625753324805277E+07,
2461190.500000000, A.D. 2026-May-30 00:00:00.0000, 4.066426712081854E+08, -2.556001759209064E+08, 3.528435673884590E+07,
2461197.500000000, A.D. 2026-Jun-06 00:00:00.0000, 4.122540578617487E+08, -2.473199043211245E+08, 3.429584307338513E+07,
2461204.500000000, A.D. 2026-Jun-13 00:00:00.0000, 4.176867417758377E+08, -2.389324350183215E+08, 3.329245678221127E+07,
2461211.500000000, A.D. 2026-Jun-20 00:00:00.0000, 4.229387899314314E+08, -2.304416433000488E+08, 3.227466676115185E+07,
2461218.500000000, A.D. 2026-Jun-27 00:00:00.0000, 4.280083565301327E+08, -2.218514318938635E+08, 3.124294598653857E+07,
2461225.500000000, A.D. 2026-Jul-04 00:00:00.0000, 4.328936831373988E+08, -2.131657288180293E+08, 3.019777126960679E+07,
2461232.500000000, A.D. 2026-Jul-11 00:00:00.0000, 4.375930986632942E+08, -2.043884853563792E+08, 2.913962301590899E+07,
2461239.500000000, A.D. 2026-Jul-18 00:00:00.0000, 4.421050192751889E+08, -1.955236741325642E+08, 2.806898498324513E+07,
2461246.500000000, A.D. 2026-Jul-25 00:00:00.0000, 4.464279482685722E+08, -1.865752872819484E+08, 2.698634403601821E+07,
2461253.500000000, A.D. 2026-Aug-01 00:00:00.0000, 4.505604759456054E+08, -1.775473347703018E+08, 2.589218988757890E+07,
2461260.500000000, A.D. 2026-Aug-08 00:00:00.0000, 4.545012797173079E+08, -1.684438428959265E+08, 2.478701480775762E+07,
2461267.500000000, A.D. 2026-Aug-15 00:00:00.0000, 4.582491248453556E+08, -1.592688525248075E+08, 2.367131329419796E+07,
2461274.500000000, A.D. 2026-Aug-22 00:00:00.0000, 4.618028650646918E+08, -1.500264158374277E+08, 2.254558187730752E+07,
2461281.500000000, A.D. 2026-Aug-29 00:00:00.0000, 4.651614408007609E+08, -1.407205929613991E+08, 2.141031915694278E+07,
2461288.500000000, A.D. 2026-Sep-05 00:00:00.0000, 4.683238771157240E+08, -1.313554513596240E+08, 2.026602564068820E+07,
$$EOE